[{"OBJECT_NAME":"STARLINK-32718","OBJECT_ID":"2025-003K","EPOCH":"2026-03-09T00:35:43.188288","MEAN_MOTION":15.27601085,"ECCENTRICITY":0.0001119,"INCLINATION":43.0012,"RA_OF_ASC_NODE":292.4065,"ARG_OF_PERICENTER":295.8828,"MEAN_ANOMALY":64.1909,"EPHEMERIS_TYPE":0,"CLASSIFICATION_TYPE":"U","NORAD_CAT_ID":62496,"ELEMENT_SET_NO":999,"REV_AT_EPOCH":6645,"BSTAR":0.0010063769,"MEAN_MOTION_DOT":0.00027552,"MEAN_MOTION_DDOT":0},{"OBJECT_NAME":"FLOCK 4G-2","OBJECT_ID":"2025-009BE","EPOCH":"2026-03-09T15:53:23.273952","MEAN_MOTION":15.2767526,"ECCENTRICITY":0.00031811,"INCLINATION":97.4044,"RA_OF_ASC_NODE":151.2221,"ARG_OF_PERICENTER":329.2677,"MEAN_ANOMALY":30.8376,"EPHEMERIS_TYPE":0,"CLASSIFICATION_TYPE":"U","NORAD_CAT_ID":62661,"ELEMENT_SET_NO":999,"REV_AT_EPOCH":12132,"BSTAR":0.00051068481,"MEAN_MOTION_DOT":0.00013752,"MEAN_MOTION_DDOT":0}]
